SWAS                    
1 25560U 98071A   26068.53487068  .00004636  00000+0  29986-3 0  9991
2 25560  69.8952 124.3662 0004099  14.3215 345.8065 15.08888192482231
STARLINK-5447           
1 54779U 22175X   26068.19674390 -.00000815  00000+0 -33152-4 0  9993
2 54779  53.2191  31.4361 0001268  93.8484 266.2653 15.08831851180050
